NORAD_CAT_ID,OBJECT_NAME,OBJECT_TYPE,EPOCH,MEAN_MOTION,ECCENTRICITY,INCLINATION,RA_OF_ASC_NODE,ARG_OF_PERICENTER,MEAN_ANOMALY,BSTAR,MEAN_MOTION_DOT,MEAN_MOTION_DDOT,TLE_LINE0,TLE_LINE1,TLE_LINE2,SEMIMAJOR_AXIS,PERIOD,APOGEE,PERIGEE,DECAYED
53708.0,STARLINK-4694,PAYLOAD,2023-10-10 01:58:32,15.08838373,0.0001652,53.2182,226.6783,99.2031,260.9148,-2.7562e-05,-7.27e-06,0.0,0 STARLINK-4694,1 53708U 22107J   23283.08232388 -.00000727  00000-0 -27562-4 0  9991,2 53708  53.2182 226.6783 0001652  99.2031 260.9148 15.08838373 61225,6917.885,95.438,540.893,538.608,0.0
53708.0,STARLINK-4694,PAYLOAD,2023-10-10 05:09:18,15.08846959,0.0001385,53.2176,226.0805,92.5,267.6151,3.4698e-05,2.64e-06,0.0,0 STARLINK-4694,1 53708U 22107J   23283.21479555  .00000264  00000-0  34698-4 0  9997,2 53708  53.2176 226.0805 0001385  92.5000 267.6151 15.08846959 61241,6917.859,95.437,540.682,538.766,0.0
53708.0,STARLINK-4694,PAYLOAD,2023-10-10 13:06:14,15.0884518,0.0001392,53.2173,224.5938,80.0127,280.1022,3.356e-06,-2.35e-06,0.0,0 STARLINK-4694,1 53708U 22107J   23283.54599762 -.00000235  00000-0  33560-5 0  9993,2 53708  53.2173 224.5938 0001392  80.0127 280.1022 15.08845180 62049,6917.865,95.437,540.693,538.767,0.0
53708.0,STARLINK-4694,PAYLOAD,2023-10-11 01:49:20,15.08830074,0.0001877,53.2194,222.2172,88.7614,271.3593,-1.6319e-05,-5.48e-06,0.0,0 STARLINK-4694,1 53708U 22107J   23284.07593282 -.00000548  00000-0 -16319-4 0  9993,2 53708  53.2194 222.2172 0001877  88.7614 271.3593 15.08830074 61377,6917.911,95.438,541.074,538.477,0.0
53708.0,STARLINK-4694,PAYLOAD,2023-10-11 06:35:29,15.0883677,0.0001806,53.2183,221.3222,88.3246,271.7953,3.44e-05,2.59e-06,0.0,0 STARLINK-4694,1 53708U 22107J   23284.27464784  .00000259  00000-0  34400-4 0  9997,2 53708  53.2183 221.3222 0001806  88.3246 271.7953 15.08836770 61407,6917.89,95.438,541.005,538.506,0.0
53708.0,STARLINK-4694,PAYLOAD,2023-10-11 12:57:01,15.08840545,0.0001536,53.2172,220.1325,87.7328,272.384,-3.721e-05,-8.8e-06,0.0,0 STARLINK-4694,1 53708U 22107J   23284.53960634 -.00000880  00000-0 -37210-4 0  9995,2 53708  53.2172 220.1325 0001536  87.7328 272.3840 15.08840545 62194,6917.879,95.438,540.806,538.681,0.0
53708.0,STARLINK-4694,PAYLOAD,2023-10-12 04:50:52,15.08853232,0.0001414,53.2176,217.1596,91.2333,268.8821,0.0002005,2.906e-05,0.0,0 STARLINK-4694,1 53708U 22107J   23285.20199577  .00002906  00000-0  20050-3 0  9992,2 53708  53.2176 217.1596 0001414  91.2333 268.8821 15.08853232 61549,6917.84,95.437,540.683,538.727,0.0
53708.0,STARLINK-4694,PAYLOAD,2023-10-12 12:47:49,15.08836587,0.0002106,53.2194,215.6742,76.0736,284.049,5.4706e-05,5.82e-06,0.0,0 STARLINK-4694,1 53708U 22107J   23285.53321244  .00000582  00000-0  54706-4 0  9990,2 53708  53.2194 215.6742 0002106  76.0736 284.0490 15.08836587 62347,6917.891,95.438,541.213,538.299,0.0
53708.0,STARLINK-4694,PAYLOAD,2023-10-13 04:41:39,15.0885303,0.0001499,53.2179,212.6982,82.4097,277.7065,0.00019329,2.791e-05,0.0,0 STARLINK-4694,1 53708U 22107J   23286.19559830  .00002791  00000-0  19329-3 0  9992,2 53708  53.2179 212.6982 0001499  82.4097 277.7065 15.08853030 61694,6917.841,95.437,540.743,538.669,0.0
53708.0,STARLINK-4694,PAYLOAD,2023-10-13 12:38:35,15.08843251,0.0001379,53.2185,211.2109,91.8765,268.2385,0.00012366,1.681e-05,0.0,0 STARLINK-4694,1 53708U 22107J   23286.52680506  .00001681  00000-0  12366-3 0  9995,2 53708  53.2185 211.2109 0001379  91.8765 268.2385 15.08843251 61740,6917.87,95.437,540.689,538.781,0.0
53708.0,STARLINK-4694,PAYLOAD,2023-10-14 04:32:25,15.0886946,0.0001425,53.2174,208.2377,82.7532,277.3622,0.00031733,4.77e-05,0.0,0 STARLINK-4694,1 53708U 22107J   23287.18918953  .00004770  00000-0  31733-3 0  9999,2 53708  53.2174 208.2377 0001425  82.7532 277.3622 15.08869460 61840,6917.79,95.436,540.641,538.67,0.0
53708.0,STARLINK-4694,PAYLOAD,2023-10-14 12:29:23,15.08840809,0.0001636,53.2182,206.7522,83.7442,276.3737,-8.6447e-05,-1.664e-05,0.0,0 STARLINK-4694,1 53708U 22107J   23287.52040730 -.00001664  00000-0 -86447-4 0  9990,2 53708  53.2182 206.7522 0001636  83.7442 276.3737 15.08840809 62640,6917.878,95.438,540.875,538.611,0.0
53708.0,STARLINK-4694,PAYLOAD,2023-10-14 18:50:56,15.0883057,0.0001646,53.2169,205.5637,80.2869,279.8309,4.027e-05,3.53e-06,0.0,0 STARLINK-4694,1 53708U 22107J   23287.78537301  .00000353  00000-0  40270-4 0  9999,2 53708  53.2169 205.5637 0001646  80.2869 279.8309 15.08830570 61933,6917.909,95.438,540.913,538.636,0.0
53708.0,STARLINK-4694,PAYLOAD,2023-10-14 22:01:42,15.08828961,0.0001553,53.2184,204.9685,90.7232,269.3938,-1.9977e-05,-6.06e-06,0.0,0 STARLINK-4694,1 53708U 22107J   23287.91785613 -.00000606  00000-0 -19977-4 0  9998,2 53708  53.2184 204.9685 0001553  90.7232 269.3938 15.08828961 62702,6917.914,95.438,540.853,538.705,0.0
53708.0,STARLINK-4694,PAYLOAD,2023-10-15 04:23:14,15.08839028,0.0001354,53.2173,203.7774,82.3902,277.7244,-7.3105e-05,-1.451e-05,0.0,0 STARLINK-4694,1 53708U 22107J   23288.18281202 -.00001451  00000-0 -73105-4 0  9995,2 53708  53.2173 203.7774 0001354  82.3902 277.7244 15.08839028 62749,6917.883,95.438,540.685,538.812,0.0
53708.0,STARLINK-4694,PAYLOAD,2023-10-15 21:52:29,15.08835758,0.0001269,53.2167,200.5079,83.4046,276.7091,1.9668e-05,2.5e-07,0.0,0 STARLINK-4694,1 53708U 22107J   23288.91145145  .00000025  00000-0  19668-4 0  9999,2 53708  53.2167 200.5079 0001269  83.4046 276.7091 15.08835758 62858,6917.893,95.438,540.636,538.88,0.0
53708.0,STARLINK-4694,PAYLOAD,2023-10-16 04:14:00,15.08857722,0.000138,53.217,199.3177,88.418,271.6971,1.9348e-05,2e-07,0.0,0 STARLINK-4694,1 53708U 22107J   23289.17639879  .00000020  00000-0  19348-4 0  9990,2 53708  53.2170 199.3177 0001380  88.4180 271.6971 15.08857722 62142,6917.826,95.436,540.646,538.737,0.0
53708.0,STARLINK-4694,PAYLOAD,2023-10-16 10:35:33,15.0884718,0.0001353,53.2168,198.1278,85.3939,274.7208,5.0517e-05,5.16e-06,0.0,0 STARLINK-4694,1 53708U 22107J   23289.44136519  .00000516  00000-0  50517-4 0  9996,2 53708  53.2168 198.1278 0001353  85.3939 274.7208 15.08847180 62184,6917.858,95.437,540.659,538.787,0.0
53708.0,STARLINK-4694,PAYLOAD,2023-10-17 10:26:21,15.08836042,0.0001472,53.2174,193.6677,78.8696,281.2461,0.00012193,1.653e-05,0.0,0 STARLINK-4694,1 53708U 22107J   23290.43497402  .00001653  00000-0  12193-3 0  9998,2 53708  53.2174 193.6677 0001472  78.8696 281.2461 15.08836042 62339,6917.892,95.438,540.776,538.739,0.0
53708.0,STARLINK-4694,PAYLOAD,2023-10-18 00:44:49,15.08841089,0.0001434,53.2174,190.991,88.8965,271.2191,0.0001666,2.365e-05,0.0,0 STARLINK-4694,1 53708U 22107J   23291.03112829  .00002365  00000-0  16660-3 0  9996,2 53708  53.2174 190.9910 0001434  88.8965 271.2191 15.08841089 63176,6917.877,95.437,540.734,538.75,0.0
53708.0,STARLINK-4694,PAYLOAD,2023-10-18 10:17:07,15.08853493,0.0001262,53.2167,189.2072,75.0062,285.107,7.6086e-05,9.24e-06,0.0,0 STARLINK-4694,1 53708U 22107J   23291.42856163  .00000924  00000-0  76086-4 0  9993,2 53708  53.2167 189.2072 0001262  75.0062 285.1070 15.08853493 62488,6917.839,95.437,540.577,538.831,0.0
53708.0,STARLINK-4694,PAYLOAD,2023-10-19 02:10:59,15.08839354,0.0001698,53.2191,186.2313,67.4874,292.6297,9.6086e-05,1.241e-05,0.0,0 STARLINK-4694,1 53708U 22107J   23292.09096940  .00001241  00000-0  96086-4 0  9991,2 53708  53.2191 186.2313 0001698  67.4874 292.6297 15.08839354 62584,6917.882,95.438,540.922,538.573,0.0
53708.0,STARLINK-4694,PAYLOAD,2023-10-19 22:50:59,15.0885755,0.0001498,53.2191,182.3698,92.4457,267.6707,0.000107,1.416e-05,0.0,0 STARLINK-4694,1 53708U 22107J   23292.95207456  .00001416  00000-0  10700-3 0  9994,2 53708  53.2191 182.3698 0001498  92.4457 267.6707 15.08857550 63464,6917.827,95.436,540.728,538.655,0.0
53708.0,STARLINK-4694,PAYLOAD,2023-10-20 00:26:22,15.08860006,0.0001257,53.2175,182.0709,84.7499,275.3637,0.00012588,1.717e-05,0.0,0 STARLINK-4694,1 53708U 22107J   23293.01831120  .00001717  00000-0  12588-3 0  9993,2 53708  53.2175 182.0709 0001257  84.7499 275.3637 15.08860006 62725,6917.819,95.436,540.554,538.815,0.0
53708.0,STARLINK-4694,PAYLOAD,2023-10-20 16:20:15,15.0883276,0.0001768,53.2165,179.1025,78.0596,282.0594,3.7618e-06,-2.28e-06,0.0,0 STARLINK-4694,1 53708U 22107J   23293.68073389 -.00000228  00000-0  37618-5 0  9991,2 53708  53.2165 179.1025 0001768  78.0596 282.0594 15.08832760 62827,6917.903,95.438,540.991,538.544,0.0
53708.0,STARLINK-4694,PAYLOAD,2023-10-20 21:06:25,15.08828656,0.000135,53.218,178.2052,89.6967,270.418,-2.5056e-05,-6.86e-06,0.0,0 STARLINK-4694,1 53708U 22107J   23293.87945703 -.00000686  00000-0 -25056-4 0  9991,2 53708  53.2180 178.2052 0001350  89.6967 270.4180 15.08828656 63609,6917.915,95.438,540.714,538.846,0.0
53708.0,STARLINK-4694,PAYLOAD,2023-10-21 09:49:29,15.0884173,0.000225,53.2181,175.8251,104.3001,255.8241,-2.5329e-05,-6.91e-06,0.0,0 STARLINK-4694,1 53708U 22107J   23294.40937255 -.00000691  00000-0 -25329-4 0  9993,2 53708  53.2181 175.8251 0002250 104.3001 255.8241 15.08841730 62936,6917.875,95.437,541.297,538.184,0.0
53708.0,STARLINK-4694,PAYLOAD,2023-10-21 20:57:10,15.08854155,0.0001507,53.2176,173.7484,71.6312,288.4844,8.3435e-05,1.041e-05,0.0,0 STARLINK-4694,1 53708U 22107J   23294.87303900  .00001041  00000-0  83435-4 0  9998,2 53708  53.2176 173.7484 0001507  71.6312 288.4844 15.08854155 63005,6917.837,95.437,540.745,538.66,0.0
53708.0,STARLINK-4694,PAYLOAD,2023-10-21 22:32:33,15.08864162,0.0001353,53.2174,173.4465,91.9255,268.1893,0.00013081,1.796e-05,0.0,0 STARLINK-4694,1 53708U 22107J   23294.93927084  .00001796  00000-0  13081-3 0  9996,2 53708  53.2174 173.4465 0001353  91.9255 268.1893 15.08864162 63760,6917.807,95.436,540.608,538.736,0.0
53708.0,STARLINK-4694,PAYLOAD,2023-10-22 01:43:19,15.08864306,0.0001546,53.2164,172.8515,96.1058,264.011,0.0003598,5.447e-05,0.0,0 STARLINK-4694,1 53708U 22107J   23295.07175539  .00005447  00000-0  35980-3 0  9991,2 53708  53.2164 172.8515 0001546  96.1058 264.0110 15.08864306 63037,6917.806,95.436,540.741,538.602,0.0
